     2.11           N: GPS NAV DATA                         RINEX VERSION / TYPE
teqc  2019Feb25                         20221121 12:28:11UTCPGM / RUN BY / DATE
OSX ker:10.11.6|Core i5|gcc 4.3 -m64|OSX ker:10.10+|=+      COMMENT
    1.1176D-08  0.0000D+00 -5.9605D-08  0.0000D+00          ION ALPHA
    9.0112D+04  0.0000D+00 -1.9661D+05  0.0000D+00          ION BETA
   -3.725290298462D-09-1.687538997430D-14    61440     1553 DELTA-UTC: A0,A1,T,W
                                                            END OF HEADER
13 09 10  9 23 59 44.0 3.055031411350D-04 3.410605131648D-13 0.000000000000D+00
    2.000000000000D+00 3.959375000000D+01 3.906234138903D-09-6.575031047635D-01
    1.989305019379D-06 3.957432112657D-03 3.335997462273D-06 5.153644681931D+03
    5.183840000000D+05-7.450580596924D-08-6.232769162253D-01-7.450580596924D-09
    9.943207244207D-01 3.321250000000D+02 1.663460318462D+00-8.097480149694D-09
   -6.107397254753D-11 1.000000000000D+00 1.552000000000D+03 0.000000000000D+00
    2.000000000000D+00 0.000000000000D+00-1.117587089539D-08 2.000000000000D+00
    5.153880000000D+05 4.000000000000D+00
